[{"OBJECT_NAME":"NUSAT-49 (KLARA DAN VON NEUMANN)","OBJECT_ID":"2024-149AJ","EPOCH":"2026-03-09T19:09:16.004160","MEAN_MOTION":15.30828857,"ECCENTRICITY":0.00011321,"INCLINATION":97.3807,"RA_OF_ASC_NODE":150.738,"ARG_OF_PERICENTER":286.7761,"MEAN_ANOMALY":73.3356,"EPHEMERIS_TYPE":0,"CLASSIFICATION_TYPE":"U","NORAD_CAT_ID":60500,"ELEMENT_SET_NO":999,"REV_AT_EPOCH":8693,"BSTAR":0.00043568345,"MEAN_MOTION_DOT":0.00012912,"MEAN_MOTION_DDOT":0},{"OBJECT_NAME":"STARLINK-36122","OBJECT_ID":"2025-286AD","EPOCH":"2026-03-09T04:21:40.738464","MEAN_MOTION":15.30185779,"ECCENTRICITY":0.00010131,"INCLINATION":53.1591,"RA_OF_ASC_NODE":1.1881,"ARG_OF_PERICENTER":73.135,"MEAN_ANOMALY":286.9762,"EPHEMERIS_TYPE":0,"CLASSIFICATION_TYPE":"U","NORAD_CAT_ID":66952,"ELEMENT_SET_NO":999,"REV_AT_EPOCH":1533,"BSTAR":0.001088633,"MEAN_MOTION_DOT":0.00032008,"MEAN_MOTION_DDOT":0}]
